OBJECT_NAME,OBJECT_ID,EPOCH,MEAN_MOTION,ECCENTRICITY,INCLINATION,RA_OF_ASC_NODE,ARG_OF_PERICENTER,MEAN_ANOMALY,EPHEMERIS_TYPE,CLASSIFICATION_TYPE,NORAD_CAT_ID,ELEMENT_SET_NO,REV_AT_EPOCH,BSTAR,MEAN_MOTION_DOT,MEAN_MOTION_DDOT
ONEWEB-0536,2022-138AM,2026-07-06T16:32:13.737696,13.20773057,.0002944,87.9181,270.5693,88.5818,271.5652,0,U,54148,999,18187,-.11075E-3,-.32E-6,0
ONEWEB-0527,2022-166A,2026-07-06T15:08:06.071712,13.21826962,.0002076,87.9238,240.1280,98.6092,261.5277,0,U,54642,999,17410,.85129E-4,.48E-6,0
ONEWEB-0528,2022-166B,2026-07-06T15:09:18.124128,13.21825266,.0002139,87.9239,240.1305,103.6069,256.5304,0,U,54643,999,17411,.32759E-4,.27E-6,0
ONEWEB-0539,2022-166C,2026-07-06T16:03:46.243008,13.21828339,.0001867,87.9246,240.0957,95.1951,264.9396,0,U,54644,999,17411,-.14027E-3,-.45E-6,0
ONEWEB-0540,2022-166D,2026-07-06T16:13:39.919872,13.21823986,.0002018,87.9238,240.1232,94.0265,266.1100,0,U,54645,999,17410,-.16464E-3,-.55E-6,0
ONEWEB-0542,2022-166E,2026-07-06T16:18:20.425248,13.21825758,.0001799,87.9247,240.0925,92.4339,267.7001,0,U,54646,999,17411,-.19445E-3,-.67E-6,0
ONEWEB-0545,2022-166F,2026-07-07T02:21:29.732256,13.21825702,.0001673,87.9239,240.0196,83.4466,276.6859,0,U,54647,999,17413,.15616E-3,.78E-6,0
ONEWEB-0580,2022-166G,2026-07-07T03:34:06.695040,13.21823419,.0001934,87.9239,240.0091,85.0450,275.0905,0,U,54648,999,17418,.35134E-4,.28E-6,0
ONEWEB-0582,2022-166H,2026-07-06T15:51:40.914144,13.21846414,.0000995,87.9255,240.0968,108.0321,252.0921,0,U,54649,999,17409,-.96926E-2,-.3989E-4,0
ONEWEB-0583,2022-166J,2026-07-07T03:02:40.217568,13.21825596,.0002004,87.9238,240.0297,95.5851,264.5511,0,U,54650,999,17416,-.50018E-4,-.8E-7,0
ONEWEB-0584,2022-166K,2026-07-07T03:31:42.802752,13.21824843,.0002078,87.9237,240.0103,94.1876,265.9495,0,U,54651,999,17415,.66615E-4,.41E-6,0
ONEWEB-0585,2022-166L,2026-07-07T02:16:37.162848,13.21827671,.0002183,87.9241,240.0087,100.2738,259.8642,0,U,54652,999,17415,.16161E-3,.8E-6,0
ONEWEB-0586,2022-166M,2026-07-07T02:36:01.718208,13.21825268,.0001906,87.9239,240.0314,94.8395,265.2957,0,U,54653,999,17415,.80294E-4,.46E-6,0
ONEWEB-0587,2022-166N,2026-07-06T15:56:32.707680,13.21825457,.0002335,87.9251,240.0951,102.4225,257.7171,0,U,54654,999,17425,.4107E-4,.3E-6,0
ONEWEB-0589,2022-166P,2026-07-07T02:31:10.991712,13.21825325,.0001696,87.9235,240.0171,73.1701,286.9619,0,U,54655,999,17417,.15828E-3,.78E-6,0
ONEWEB-0590,2022-166Q,2026-07-07T03:07:17.800032,13.21825598,.0002407,87.9245,240.0042,88.5114,271.6296,0,U,54656,999,17416,-.358E-4,-.2E-7,0
ONEWEB-0591,2022-166R,2026-07-06T16:30:26.027136,13.21827650,.0002109,87.9239,240.1051,94.1643,265.9732,0,U,54657,999,17413,-.7777E-4,-.19E-6,0
ONEWEB-0592,2022-166S,2026-07-06T16:35:15.620064,13.21823510,.0002056,87.9248,240.0843,96.2015,263.9354,0,U,54658,999,17401,-.41913E-4,-.4E-7,0
ONEWEB-0593,2022-166T,2026-07-07T02:11:47.702112,13.21825757,.0001908,87.9239,240.0154,96.5463,263.5888,0,U,54659,999,17417,.12679E-3,.65E-6,0
ONEWEB-0594,2022-166U,2026-07-06T15:46:49.442016,13.21824299,.0002139,87.9240,240.1175,101.8339,258.3034,0,U,54660,999,17413,.14458E-5,.14E-6,0
ONEWEB-0595,2022-166V,2026-07-06T15:12:56.302272,13.21825280,.0002307,87.9249,240.1048,99.9838,260.1556,0,U,54661,999,17410,.12328E-3,.64E-6,0
ONEWEB-0596,2022-166W,2026-07-06T16:25:34.434048,13.21828007,.0002157,87.9240,240.1045,96.9260,263.2119,0,U,54662,999,17411,-.12018E-3,-.37E-6,0
ONEWEB-0597,2022-166X,2026-07-07T01:03:56.642112,13.21827670,.0001952,87.9237,240.0359,94.7448,265.3909,0,U,54663,999,17416,.32823E-4,.27E-6,0
ONEWEB-0600,2022-166Y,2026-07-06T15:32:19.305888,13.21825493,.0001901,87.9239,240.1063,100.1833,259.9515,0,U,54664,999,17408,.74376E-4,.44E-6,0
ONEWEB-0601,2022-166Z,2026-07-07T02:14:12.422112,13.21824640,.000184,87.9236,240.0335,91.7757,268.3587,0,U,54665,999,17433,.29197E-3,.134E-5,0
ONEWEB-0602,2022-166AA,2026-07-06T16:19:31.027872,13.21827791,.0001835,87.9237,240.1214,101.0909,259.0432,0,U,54666,999,17412,-.2005E-3,-.7E-6,0
ONEWEB-0603,2022-166AB,2026-07-06T16:28:00.300576,13.21827371,.0001958,87.9250,240.0792,95.6853,264.4505,0,U,54667,999,17405,-.70098E-4,-.16E-6,0
ONEWEB-0604,2022-166AC,2026-07-07T03:05:02.890752,13.21823590,.0002112,87.9248,240.0072,99.1580,260.9793,0,U,54668,999,17407,-.80392E-4,-.2E-6,0
ONEWEB-0605,2022-166AD,2026-07-06T16:01:21.473760,13.21827961,.0002144,87.9239,240.1105,79.8989,280.2387,0,U,54669,999,17408,-.16283E-3,-.54E-6,0
ONEWEB-0606,2022-166AE,2026-07-07T03:26:52.069344,13.21825254,.0002127,87.9240,240.0280,100.8594,259.2780,0,U,54670,999,17420,.20628E-4,.22E-6,0
ONEWEB-0607,2022-166AF,2026-07-07T02:38:26.954016,13.21825285,.0001901,87.9245,240.0072,95.9522,264.1829,0,U,54671,999,17417,.81644E-4,.47E-6,0
